HAWK-5A                 
1 52757U 22057AB  26201.24939494  .00011212  00000+0  18518-3 0  9999
2 52757  97.6637   2.2669 0002953 313.5625  46.5381 15.52434413231471
HAWK-6B                 
1 55324U 23011A   26201.16491916  .00002609  00000+0  11619-3 0  9991
2 55324  40.4981 159.6818 0004577 265.8375  94.1911 15.23180588192877
HAWK-6C                 
1 55326U 23011C   26201.29541723  .00002366  00000+0  10612-3 0  9991
2 55326  40.4968 155.7556 0005045 260.9756  99.0483 15.23180433192901
HAWK-6A                 
1 55327U 23011D   26201.29545474  .00002486  00000+0  11107-3 0  9992
2 55327  40.4979 157.3831 0004740 258.0591 101.9687 15.23180974192903
HAWK-7A                 
1 56191U 23054P   26201.12623839  .00002921  00000+0  11071-3 0  9997
2 56191  97.2654  87.6258 0001010 297.8313  62.2824 15.27662032182052
HAWK-7B                 
1 56193U 23054R   26201.12617265  .00003081  00000+0  11662-3 0  9999
2 56193  97.2683  85.9006 0000811   7.7198 352.4054 15.27664241182058
HAWK-7C                 
1 56200U 23054Y   26201.12604329  .00002896  00000+0  10977-3 0  9996
2 56200  97.2657  86.6595 0000421 320.1180  40.0029 15.27662875182052
